STARLINK-34637          
1 64776U 25147X   25211.91668981  .00087835  00000+0  15731-2 0  9997
2 64776  53.1603 196.5284 0001209  99.3727 334.9871 15.49246071  4709
STARLINK-34547          
1 64777U 25147Y   25211.91668981  .00089352  00000+0  15998-2 0  9999
2 64777  53.1603 196.5247 0001089  99.1136 337.1633 15.49246501  4751
STARLINK-34537          
1 64778U 25147Z   25212.22051289  .00256446  00000+0  14057-2 0  9997
2 64778  53.1548 193.5464 0001186 102.4156 257.6998 15.78544612  4853
STARLINK-34585          
1 64779U 25147AA  25211.91668981  .00087053  00000+0  15593-2 0  9998
2 64779  53.1603 196.5162 0001190  97.8404 342.2695 15.49246357  4759
STARLINK-34491          
1 64780U 25147AB  25211.91668981  .00086304  00000+0  15461-2 0  9992
2 64780  53.1603 196.5128 0001176  99.0743 342.9534 15.49246440  4805
STARLINK-34582          
1 64781U 25147AC  25211.91668981  .00087343  00000+0  15644-2 0  9990
2 64781  53.1604 196.5086 0001160  93.6481 350.2903 15.49246555  4700
STARLINK-34482          
1 64782U 25147AD  25211.91668981  .00086166  00000+0  15437-2 0  9993
2 64782  53.1604 196.5042 0001177  98.4284 347.4324 15.49246058  4843
STARLINK-34629          
1 64790U 25150A   25211.91668981 -.01003251  00000+0 -76523-2 0  9996
2 64790  69.9980 358.5992 0003705 274.3297 119.5521 15.74315527  3578
STARLINK-34697          
1 64791U 25150B   25211.91668981 -.01017376  00000+0 -77694-2 0  9990
2 64791  69.9978 358.5967 0003866 275.8769 119.9316 15.74318752  3575
STARLINK-34632          
1 64792U 25150C   25211.91668981 -.00927290  00000+0 -71491-2 0  9994
2 64792  69.9974 358.5939 0003944 278.9634 118.8685 15.74272048  3577
STARLINK-34693          
1 64793U 25150D   25211.91668981 -.01011871  00000+0 -77560-2 0  9998
2 64793  69.9976 358.5916 0003755 281.5086 118.3667 15.74222085  3577
STARLINK-34666          
1 64794U 25150E   25211.91668981 -.01017733  00000+0 -78213-2 0  9998
2 64794  69.9975 358.5895 0003601 274.7362 127.1516 15.74177680  3575
STARLINK-34567          
1 64795U 25150F   25212.25002315 -.00202478  00000+0 -15113-2 0  9991
2 64795  69.9985 357.6462 0003272 267.0848 224.7757 15.73041526  2720
STARLINK-34646          
1 64796U 25150G   25212.25002315 -.00094602  00000+0 -69878-3 0  9998
2 64796  69.9987 357.6438 0003723 275.3802 218.4390 15.72958127  2725
STARLINK-34641          
1 64797U 25150H   25212.25002315 -.00056035  00000+0 -41180-3 0  9993
2 64797  69.9990 357.6416 0003312 272.0926 223.6595 15.72935787  2723
STARLINK-34649          
1 64798U 25150J   25212.25002315  .00006631  00000+0  50281-4 0  9992
2 64798  69.9989 357.6393 0003254 271.8590 225.8300 15.72895258  2721
