[{"OBJECT_NAME":"STARLINK-34637","OBJECT_ID":"2025-147X","EPOCH":"2025-07-30T22:00:01.999584","MEAN_MOTION":15.49246071,"ECCENTRICITY":0.0001209,"INCLINATION":53.1603,"RA_OF_ASC_NODE":196.5284,"ARG_OF_PERICENTER":99.3727,"MEAN_ANOMALY":334.9871,"EPHEMERIS_TYPE":0,"CLASSIFICATION_TYPE":"U","NORAD_CAT_ID":64776,"ELEMENT_SET_NO":999,"REV_AT_EPOCH":470,"BSTAR":0.0015731,"MEAN_MOTION_DOT":0.00087835,"MEAN_MOTION_DDOT":0},{"OBJECT_NAME":"STARLINK-34547","OBJECT_ID":"2025-147Y","EPOCH":"2025-07-30T22:00:01.999584","MEAN_MOTION":15.49246501,"ECCENTRICITY":0.0001089,"INCLINATION":53.1603,"RA_OF_ASC_NODE":196.5247,"ARG_OF_PERICENTER":99.1136,"MEAN_ANOMALY":337.1633,"EPHEMERIS_TYPE":0,"CLASSIFICATION_TYPE":"U","NORAD_CAT_ID":64777,"ELEMENT_SET_NO":999,"REV_AT_EPOCH":475,"BSTAR":0.0015998,"MEAN_MOTION_DOT":0.00089352,"MEAN_MOTION_DDOT":0},{"OBJECT_NAME":"STARLINK-34537","OBJECT_ID":"2025-147Z","EPOCH":"2025-07-31T05:17:32.313696","MEAN_MOTION":15.78544612,"ECCENTRICITY":0.0001186,"INCLINATION":53.1548,"RA_OF_ASC_NODE":193.5464,"ARG_OF_PERICENTER":102.4156,"MEAN_ANOMALY":257.6998,"EPHEMERIS_TYPE":0,"CLASSIFICATION_TYPE":"U","NORAD_CAT_ID":64778,"ELEMENT_SET_NO":999,"REV_AT_EPOCH":485,"BSTAR":0.0014057,"MEAN_MOTION_DOT":0.00256446,"MEAN_MOTION_DDOT":0},{"OBJECT_NAME":"STARLINK-34585","OBJECT_ID":"2025-147AA","EPOCH":"2025-07-30T22:00:01.999584","MEAN_MOTION":15.49246357,"ECCENTRICITY":0.000119,"INCLINATION":53.1603,"RA_OF_ASC_NODE":196.5162,"ARG_OF_PERICENTER":97.8404,"MEAN_ANOMALY":342.2695,"EPHEMERIS_TYPE":0,"CLASSIFICATION_TYPE":"U","NORAD_CAT_ID":64779,"ELEMENT_SET_NO":999,"REV_AT_EPOCH":475,"BSTAR":0.0015593,"MEAN_MOTION_DOT":0.00087053,"MEAN_MOTION_DDOT":0},{"OBJECT_NAME":"STARLINK-34491","OBJECT_ID":"2025-147AB","EPOCH":"2025-07-30T22:00:01.999584","MEAN_MOTION":15.4924644,"ECCENTRICITY":0.0001176,"INCLINATION":53.1603,"RA_OF_ASC_NODE":196.5128,"ARG_OF_PERICENTER":99.0743,"MEAN_ANOMALY":342.9534,"EPHEMERIS_TYPE":0,"CLASSIFICATION_TYPE":"U","NORAD_CAT_ID":64780,"ELEMENT_SET_NO":999,"REV_AT_EPOCH":480,"BSTAR":0.0015461,"MEAN_MOTION_DOT":0.00086304,"MEAN_MOTION_DDOT":0},{"OBJECT_NAME":"STARLINK-34582","OBJECT_ID":"2025-147AC","EPOCH":"2025-07-30T22:00:01.999584","MEAN_MOTION":15.49246555,"ECCENTRICITY":0.000116,"INCLINATION":53.1604,"RA_OF_ASC_NODE":196.5086,"ARG_OF_PERICENTER":93.6481,"MEAN_ANOMALY":350.2903,"EPHEMERIS_TYPE":0,"CLASSIFICATION_TYPE":"U","NORAD_CAT_ID":64781,"ELEMENT_SET_NO":999,"REV_AT_EPOCH":470,"BSTAR":0.0015644,"MEAN_MOTION_DOT":0.00087343,"MEAN_MOTION_DDOT":0},{"OBJECT_NAME":"STARLINK-34482","OBJECT_ID":"2025-147AD","EPOCH":"2025-07-30T22:00:01.999584","MEAN_MOTION":15.49246058,"ECCENTRICITY":0.0001177,"INCLINATION":53.1604,"RA_OF_ASC_NODE":196.5042,"ARG_OF_PERICENTER":98.4284,"MEAN_ANOMALY":347.4324,"EPHEMERIS_TYPE":0,"CLASSIFICATION_TYPE":"U","NORAD_CAT_ID":64782,"ELEMENT_SET_NO":999,"REV_AT_EPOCH":484,"BSTAR":0.0015437,"MEAN_MOTION_DOT":0.00086166,"MEAN_MOTION_DDOT":0},{"OBJECT_NAME":"STARLINK-34629","OBJECT_ID":"2025-150A","EPOCH":"2025-07-30T22:00:01.999584","MEAN_MOTION":15.74315527,"ECCENTRICITY":0.0003705,"INCLINATION":69.998,"RA_OF_ASC_NODE":358.5992,"ARG_OF_PERICENTER":274.3297,"MEAN_ANOMALY":119.5521,"EPHEMERIS_TYPE":0,"CLASSIFICATION_TYPE":"U","NORAD_CAT_ID":64790,"ELEMENT_SET_NO":999,"REV_AT_EPOCH":357,"BSTAR":-0.0076523,"MEAN_MOTION_DOT":-0.01003251,"MEAN_MOTION_DDOT":0},{"OBJECT_NAME":"STARLINK-34697","OBJECT_ID":"2025-150B","EPOCH":"2025-07-30T22:00:01.999584","MEAN_MOTION":15.74318752,"ECCENTRICITY":0.0003866,"INCLINATION":69.9978,"RA_OF_ASC_NODE":358.5967,"ARG_OF_PERICENTER":275.8769,"MEAN_ANOMALY":119.9316,"EPHEMERIS_TYPE":0,"CLASSIFICATION_TYPE":"U","NORAD_CAT_ID":64791,"ELEMENT_SET_NO":999,"REV_AT_EPOCH":357,"BSTAR":-0.0077694,"MEAN_MOTION_DOT":-0.01017376,"MEAN_MOTION_DDOT":0},{"OBJECT_NAME":"STARLINK-34632","OBJECT_ID":"2025-150C","EPOCH":"2025-07-30T22:00:01.999584","MEAN_MOTION":15.74272048,"ECCENTRICITY":0.0003944,"INCLINATION":69.9974,"RA_OF_ASC_NODE":358.5939,"ARG_OF_PERICENTER":278.9634,"MEAN_ANOMALY":118.8685,"EPHEMERIS_TYPE":0,"CLASSIFICATION_TYPE":"U","NORAD_CAT_ID":64792,"ELEMENT_SET_NO":999,"REV_AT_EPOCH":357,"BSTAR":-0.0071491,"MEAN_MOTION_DOT":-0.0092729,"MEAN_MOTION_DDOT":0},{"OBJECT_NAME":"STARLINK-34693","OBJECT_ID":"2025-150D","EPOCH":"2025-07-30T22:00:01.999584","MEAN_MOTION":15.74222085,"ECCENTRICITY":0.0003755,"INCLINATION":69.9976,"RA_OF_ASC_NODE":358.5916,"ARG_OF_PERICENTER":281.5086,"MEAN_ANOMALY":118.3667,"EPHEMERIS_TYPE":0,"CLASSIFICATION_TYPE":"U","NORAD_CAT_ID":64793,"ELEMENT_SET_NO":999,"REV_AT_EPOCH":357,"BSTAR":-0.007756,"MEAN_MOTION_DOT":-0.01011871,"MEAN_MOTION_DDOT":0},{"OBJECT_NAME":"STARLINK-34666","OBJECT_ID":"2025-150E","EPOCH":"2025-07-30T22:00:01.999584","MEAN_MOTION":15.7417768,"ECCENTRICITY":0.0003601,"INCLINATION":69.9975,"RA_OF_ASC_NODE":358.5895,"ARG_OF_PERICENTER":274.7362,"MEAN_ANOMALY":127.1516,"EPHEMERIS_TYPE":0,"CLASSIFICATION_TYPE":"U","NORAD_CAT_ID":64794,"ELEMENT_SET_NO":999,"REV_AT_EPOCH":357,"BSTAR":-0.0078213,"MEAN_MOTION_DOT":-0.01017733,"MEAN_MOTION_DDOT":0},{"OBJECT_NAME":"STARLINK-34567","OBJECT_ID":"2025-150F","EPOCH":"2025-07-31T06:00:02.000160","MEAN_MOTION":15.73041526,"ECCENTRICITY":0.0003272,"INCLINATION":69.9985,"RA_OF_ASC_NODE":357.6462,"ARG_OF_PERICENTER":267.0848,"MEAN_ANOMALY":224.7757,"EPHEMERIS_TYPE":0,"CLASSIFICATION_TYPE":"U","NORAD_CAT_ID":64795,"ELEMENT_SET_NO":999,"REV_AT_EPOCH":272,"BSTAR":-0.0015113,"MEAN_MOTION_DOT":-0.00202478,"MEAN_MOTION_DDOT":0},{"OBJECT_NAME":"STARLINK-34646","OBJECT_ID":"2025-150G","EPOCH":"2025-07-31T06:00:02.000160","MEAN_MOTION":15.72958127,"ECCENTRICITY":0.0003723,"INCLINATION":69.9987,"RA_OF_ASC_NODE":357.6438,"ARG_OF_PERICENTER":275.3802,"MEAN_ANOMALY":218.439,"EPHEMERIS_TYPE":0,"CLASSIFICATION_TYPE":"U","NORAD_CAT_ID":64796,"ELEMENT_SET_NO":999,"REV_AT_EPOCH":272,"BSTAR":-0.00069878,"MEAN_MOTION_DOT":-0.00094602,"MEAN_MOTION_DDOT":0},{"OBJECT_NAME":"STARLINK-34641","OBJECT_ID":"2025-150H","EPOCH":"2025-07-31T06:00:02.000160","MEAN_MOTION":15.72935787,"ECCENTRICITY":0.0003312,"INCLINATION":69.999,"RA_OF_ASC_NODE":357.6416,"ARG_OF_PERICENTER":272.0926,"MEAN_ANOMALY":223.6595,"EPHEMERIS_TYPE":0,"CLASSIFICATION_TYPE":"U","NORAD_CAT_ID":64797,"ELEMENT_SET_NO":999,"REV_AT_EPOCH":272,"BSTAR":-0.0004118,"MEAN_MOTION_DOT":-0.00056035,"MEAN_MOTION_DDOT":0},{"OBJECT_NAME":"STARLINK-34649","OBJECT_ID":"2025-150J","EPOCH":"2025-07-31T06:00:02.000160","MEAN_MOTION":15.72895258,"ECCENTRICITY":0.0003254,"INCLINATION":69.9989,"RA_OF_ASC_NODE":357.6393,"ARG_OF_PERICENTER":271.859,"MEAN_ANOMALY":225.83,"EPHEMERIS_TYPE":0,"CLASSIFICATION_TYPE":"U","NORAD_CAT_ID":64798,"ELEMENT_SET_NO":999,"REV_AT_EPOCH":272,"BSTAR":5.0281e-5,"MEAN_MOTION_DOT":6.631e-5,"MEAN_MOTION_DDOT":0}]
